OCEANSAT-2              
1 35931U 09051A   22101.19669348 -.00014838  00000+0 -40812-2 0  9990
2 35931  98.2860 197.3636 0001547 288.3246  71.7807 14.46967187664482
SWISSCUBE               
1 35932U 09051B   22101.13539413  .00000712  00000+0  17023-3 0  9997
2 35932  98.5776 315.1670 0006367 252.3275 107.7227 14.56758465666338
BEESAT-1                
1 35933U 09051C   22101.09149304  .00000589  00000+0  14250-3 0  9990
2 35933  98.5721 316.7952 0004532 267.8150  92.2528 14.56788087666441
ITUPSAT1                
1 35935U 09051E   22100.86173255  .00000538  00000+0  13359-3 0  9991
2 35935  98.5823 316.6319 0006854 271.6188  88.4223 14.55904870666049
AMAZONAS 2              
1 35942U 09054A   22100.82663233 -.00000283  00000+0  00000+0 0  9991
2 35942   0.0520 115.0358 0003028 310.2584  10.3324  1.00270947 45856
COMSATBW-1              
1 35943U 09054B   22101.13837066  .00000024  00000+0  00000+0 0  9996
2 35943   0.0778  93.5249 0002801 310.5671 268.0399  1.00272030 45937
WORLDVIEW-2 (WV-2)      
1 35946U 09055A   22101.18330357  .00000154  00000+0  65893-4 0  9996
2 35946  98.4890 177.1644 0001539 141.3569 218.7747 14.37651395656247
DMSP 5D-3 F18 (USA 210) 
1 35951U 09057A   22101.15753188  .00000249  00000+0  15498-3 0  9992
2 35951  98.7177  82.2216 0009902 280.4969  79.5088 14.13472144643600
NSS-12                  
1 36032U 09058A   22100.78872950  .00000070  00000+0  00000+0 0  9992
2 36032   0.0514  75.5338 0002722 302.1171 162.2725  1.00273215 45594
THOR 6                  
1 36033U 09058B   22101.16438271 -.00000011  00000+0  00000+0 0  9996
2 36033   0.0188 141.0544 0001865 221.5854 255.0586  1.00271567 45649
SMOS                    
1 36036U 09059A   22100.75885587  .00000271  00000+0  10039-3 0  9994
2 36036  98.4447 289.2573 0001001  85.4052 274.7251 14.39763873653528
PROBA-2                 
1 36037U 09059B   22100.74845552  .00000182  00000+0  54690-4 0  9995
2 36037  98.2244 288.6244 0012524 322.1451  37.8863 14.53217516659422
SJ-11-01                
1 36088U 09061A   22101.17868348  .00000631  00000+0  13962-3 0  9995
2 36088  97.9356 119.0982 0012569 149.6887 210.5062 14.60316792661325
COSMOS 2455             
1 36095U 09063A   22101.18405117 -.00000031  00000+0  32059-4 0  9991
2 36095  67.1507   8.1345 0007564 249.5219 110.5054 13.96785116631908
INTELSAT 14 (IS-14)     
1 36097U 09064A   22100.82985941 -.00000274  00000+0  00000+0 0  9997
2 36097   0.0176 126.0727 0002725 264.9097  61.8076  1.00271615 45278
EUTELSAT 36B            
1 36101U 09065A   22101.14771580  .00000154  00000+0  00000+0 0  9998
2 36101   0.0688  16.9213 0005387  10.2240 261.2648  1.00274249 45488
INTELSAT 15 (IS-15)     
1 36106U 09067A   22101.07103826 -.00000185  00000+0  00000+0 0  9994
2 36106   0.0131 225.2806 0002370 154.9377 289.7729  1.00268419 45279
WGS F3 (USA 211)        
1 36108U 09068A   22098.05813330 -.00000069  00000+0  00000+0 0  9999
2 36108   0.1677  93.1557 0000866 327.0063 248.0235  0.99447654 31255
YAOGAN 7                
1 36110U 09069A   22101.18157349  .00000546  00000+0  88705-4 0  9995
2 36110  98.2081 319.9982 0023851 262.1637  97.6841 14.75069947664225
COSMOS 2456 [GLONASS-M] 
1 36111U 09070A   22100.47528513  .00000076  00000+0  00000+0 0  9999
2 36111  64.3348 123.3883 0005736 300.7739  65.2263  2.13099171 95898
COSMOS 2457 [GLONASS-M] 
1 36112U 09070B   22100.53525699  .00000077  00000+0  00000+0 0  9990
2 36112  64.3178 123.2631 0004577 194.2274 344.5352  2.13101378 95897
WISE                    
1 36119U 09071A   22100.84274705  .00007861  00000+0  25167-3 0  9994
2 36119  97.2488 136.6288 0003035 147.0830 213.0602 15.32653054685140
YAOGAN 8                
1 36121U 09072A   22100.82838161  .00000132  00000+0  53767-3 0  9999
2 36121 100.2638  37.8902 0021238 157.2342 202.9711 13.04974182589311
XIWANG-1 (HOPE-1)       
1 36122U 09072B   22100.85620395 -.00000013  00000+0  77409-4 0  9990
2 36122 100.1767  74.7172 0007966 133.1469 227.0312 13.16367607591913
HELIOS 2B               
1 36124U 09073A   22101.09978731  .00016081  00000+0  64064-3 0  9993
2 36124  98.1601  40.5753 0189809   6.9168 353.4634 15.10238092657896
DIRECTV 12              
1 36131U 09075A   22101.10540220 -.00000105  00000+0  00000+0 0  9990
2 36131   0.0041 155.7861 0000839  26.7729 311.9644  1.00272042 45068
BEIDOU 3                
1 36287U 10001A   22100.93859689 -.00000280  00000+0  00000+0 0  9999
2 36287   1.9652  49.4207 0003410  12.7387 255.2918  1.00273140 44832
RADUGA-1M 2             
1 36358U 10002A   22100.64048779 -.00000185  00000+0  00000+0 0  9991
2 36358   0.0774 262.2152 0002458 167.8777  84.3135  1.00270352 34761
SDO                     
1 36395U 10005A   22101.09352132 -.00000043  00000+0  00000+0 0  9999
2 36395  31.5234 110.3084 0001782 260.8790 119.9325  1.00274257 44717
INTELSAT 16 (IS-16)     
1 36397U 10006A   22100.82357969 -.00000245  00000+0  00000+0 0  9999
2 36397   0.0129 207.0519 0001903 169.9346  42.3283  1.00268797 44322
COSMOS 2461 [GLONASS-M] 
1 36401U 10007B   22101.24858362 -.00000073  00000+0  00000+0 0  9995
2 36401  65.9703   5.7480 0022117   5.7436  35.1632  2.13103739 94268
COSMOS 2460 [GLONASS-M] 
1 36402U 10007C   22100.83679698 -.00000075  00000+0  00000+0 0  9995
2 36402  65.9572   5.7115 0002216   1.2467  31.5324  2.13106349 94258
GOES 15                 
1 36411U 10008A   22100.74142769  .00000055  00000+0  00000+0 0  9997
2 36411   0.1314 106.5246 0001628 318.9341 271.9898  1.00272903 44349
YAOGAN 9A               
1 36413U 10009A   22100.85461639 -.00000017  00000+0  75961-4 0  9994
2 36413  63.3855 344.9457 0404996  11.7055  56.7954 13.45219651594344
YAOGAN 9B               
1 36414U 10009B   22101.05533541 -.00000349  00000+0 -26540-3 0  9997
2 36414  63.3862 343.9951 0405708  11.1078 349.8579 13.45230295594540
YAOGAN 9C               
1 36415U 10009C   22101.35198591  .00000073  00000+0  16831-3 0  9997
2 36415  63.3854 343.8601 0406061  11.3854 349.6015 13.45232477594558
ECHOSTAR 14             
1 36499U 10010A   22100.77161229 -.00000001  00000+0  00000+0 0  9993
2 36499   0.0153 234.7671 0002752 145.6890 337.4013  1.00272225 31221
CRYOSAT 2               
1 36508U 10013A   22101.12624197  .00000198  00000+0  48369-4 0  9996
2 36508  92.0258 267.7470 0007848 109.3502 250.8555 14.51908255636409
SES-1                   
1 36516U 10016A   22100.62228021 -.00000116  00000+0  00000+0 0  9994
2 36516   0.0426  55.5882 0002467 317.3685 308.8934  1.00272954 43710
COSMOS 2463             
1 36519U 10017A   22100.88831392  .00000070  00000+0  60025-4 0  9993
2 36519  82.9568 292.4342 0037230  51.7131  62.0773 13.71470550598430
ASTRA 3B                
1 36581U 10021A   22101.15327294  .00000136  00000+0  00000+0 0  9994
2 36581   0.0869  68.6847 0004267 289.5623 279.7804  1.00269337 43321
COMSATBW-2              
1 36582U 10021B   22100.66276024  .00000087  00000+0  00000+0 0  9999
2 36582   0.0377  83.8193 0002251 302.1225  64.7225  1.00269443 43620
NAVSTAR 65 (USA 213)    
1 36585U 10022A   22100.74142999  .00000016  00000+0  00000+0 0  9997
2 36585  54.8463 270.2485 0103666  56.4216 251.8282  2.00561893 86931
BADR-5                  
1 36592U 10025A   22100.84398873  .00000143  00000+0  00000+0 0  9994
2 36592   0.0295 134.5881 0002195 287.1820 107.1032  1.00269934 37893
SJ-12                   
1 36596U 10027A   22100.91230053  .00002970  00000+0  25968-3 0  9997
2 36596  97.7151  89.4881 0009756 254.2086 105.8060 14.97488696644896
TANDEM-X                
1 36605U 10030A   22100.60623256  .00000120  00000+0  89181-5 0  9993
2 36605  97.4460 109.1644 0002086  82.1101  24.8832 15.19157341654566
COMS 1                  
1 36744U 10032A   22100.64903517 -.00000345  00000+0  00000+0 0  9991
2 36744   0.8898  94.0078 0000870 271.0592 195.5910  1.00273067 35765
ARABSAT-5A              
1 36745U 10032B   22100.84486090  .00000152  00000+0  00000+0 0  9991
2 36745   0.0653  40.5246 0003348  14.1660 118.9747  1.00272682 43325
ECHOSTAR 15             
1 36792U 10034A   22100.82654510 -.00000283  00000+0  00000+0 0  9993
2 36792   0.0584  81.0920 0002063 269.1649  84.6927  1.00272570 43001
CARTOSAT-2B             
1 36795U 10035A   22101.19353692  .00001202  00000+0  17080-3 0  9996
2 36795  97.9666 162.2712 0015138 102.2876 258.0070 14.78664644634128
AISSAT 1                
1 36797U 10035C   22101.09492133  .00001398  00000+0  16299-3 0  9998
2 36797  98.2377 282.5340 0011635  35.3976 324.8009 14.86896515636568
ALSAT 2A                
1 36798U 10035D   22101.14076585  .00000914  00000+0  15934-3 0  9992
2 36798  97.8726 144.6352 0001948 101.2955 258.8473 14.70244416628998
TISAT 1                 
1 36799U 10035E   22100.81564013  .00002432  00000+0  24275-3 0  9999
2 36799  98.1909 308.5852 0011161 323.5620  36.4837 14.92498346637674
BEIDOU 5                
1 36828U 10036A   22101.04010350 -.00000136  00000+0  00000+0 0  9995
2 36828  54.1896 176.8466 0027753 186.2627 318.8596  1.00265610 42902
NILESAT 201             
1 36830U 10037A   22101.16993712 -.00000059  00000+0  00000+0 0  9998
2 36830   0.0455 149.7115 0006026 250.1480 213.6792  1.00272022 42965
RASCOM-QAF 1R           
1 36831U 10037B   22101.16438271  .00000017  00000+0  00000+0 0  9996
2 36831   0.0429 101.5710 0005108 274.7181 245.1187  1.00272468 42966
YAOGAN 10               
1 36834U 10038A   22101.18965572  .00001166  00000+0  15664-3 0  9993
2 36834  97.9793 112.3215 0001600  88.9463 271.1934 14.81197885630828
AEHF-1 (USA 214)        
1 36868U 10039A   22101.16438271  .00000028  00000+0  00000+0 0  9990
2 36868   4.3629  87.6640 0005385 341.9380 192.9170  1.00270833 43119
TIANHUI 1               
1 36985U 10040A   22101.11843262  .00004218  00000+0  16210-3 0  9996
2 36985  97.6826 316.0034 0030189 174.8555 301.1666 15.26591558646875
